start=new Date('2023-05-29T00:00:00.000Z').valueOf();
sats=[{"ARG_OF_PERICENTER":"89.7702","ELEMENT_SET_NO":"999","MEAN_ANOMALY":"270.3429","TIME_SYSTEM":"UTC","EPHEMERIS_TYPE":"0","OBJECT_ID":"2021-040BK","MEAN_MOTION":"15.06386963","TLE_LINE2":"2 48485  53.0546  85.4389 0001239  89.7702 270.3429 15.06386963113110","ECCENTRICITY":"0.00012390","EPOCH":"2023-05-28T01:27:24.260544","INCLINATION":"53.0546","SITE":"AFETR","FILE":"3919252","DECAY_DATE":null,"CENTER_NAME":"EARTH","COUNTRY_CODE":"US","OBJECT_NAME":"STARLINK-2500","SEMIMAJOR_AXIS":"6925.389","NORAD_CAT_ID":"48485","RA_OF_ASC_NODE":"85.4389","OBJECT_TYPE":"PAYLOAD","REF_FRAME":"TEME","MEAN_MOTION_DDOT":"0.0000000000000","PERIOD":"95.593","CLASSIFICATION_TYPE":"U","RCS_SIZE":"LARGE","MEAN_ELEMENT_THEORY":"SGP4","GP_ID":"232672862","REV_AT_EPOCH":"11311","BSTAR":"-0.00029912000000","MEAN_MOTION_DOT":"-0.00004732","APOAPSIS":"548.112","TLE_LINE1":"1 48485U 21040BK  23148.06069746 -.00004732  00000-0 -29912-3 0  9996","LAUNCH_DATE":"2021-05-09","PERIAPSIS":"546.395"},{"BSTAR":"-0.00006120100000","REV_AT_EPOCH":"11312","GP_ID":"232672609","MEAN_ELEMENT_THEORY":"SGP4","RCS_SIZE":"LARGE","CLASSIFICATION_TYPE":"U","PERIOD":"95.593","MEAN_MOTION_DDOT":"0.0000000000000","PERIAPSIS":"546.471","LAUNCH_DATE":"2021-05-09","TLE_LINE1":"1 48486U 21040BL  23148.12978732 -.00001193  00000-0 -61201-4 0  9994","APOAPSIS":"547.996","MEAN_MOTION_DOT":"-0.00001193","ECCENTRICITY":"0.00011010","TLE_LINE2":"2 48486  53.0535  85.1193 0001101  86.3805 273.7309 15.06393382113122","MEAN_MOTION":"15.06393382","OBJECT_ID":"2021-040BL","EPHEMERIS_TYPE":"0","TIME_SYSTEM":"UTC","MEAN_ANOMALY":"273.7309","ELEMENT_SET_NO":"999","ARG_OF_PERICENTER":"86.3805","REF_FRAME":"TEME","RA_OF_ASC_NODE":"85.1193","OBJECT_TYPE":"PAYLOAD","NORAD_CAT_ID":"48486","SEMIMAJOR_AXIS":"6925.369","OBJECT_NAME":"STARLINK-2496","CENTER_NAME":"EARTH","COUNTRY_CODE":"US","DECAY_DATE":null,"FILE":"3919252","SITE":"AFETR","INCLINATION":"53.0535","EPOCH":"2023-05-28T03:06:53.624448"},{"ARG_OF_PERICENTER":"72.6879","MEAN_ANOMALY":"287.4256","ELEMENT_SET_NO":"999","TIME_SYSTEM":"UTC","ECCENTRICITY":"0.00013400","TLE_LINE2":"2 48487  53.0547  84.8126 0001340  72.6879 287.4256 15.06386127113146","MEAN_MOTION":"15.06386127","OBJECT_ID":"2021-040BM","EPHEMERIS_TYPE":"0","INCLINATION":"53.0547","EPOCH":"2023-05-28T04:49:06.244608","FILE":"3919252","DECAY_DATE":null,"SITE":"AFETR","OBJECT_NAME":"STARLINK-2494","SEMIMAJOR_AXIS":"6925.391","COUNTRY_CODE":"US","CENTER_NAME":"EARTH","REF_FRAME":"TEME","OBJECT_TYPE":"PAYLOAD","RA_OF_ASC_NODE":"84.8126","NORAD_CAT_ID":"48487","PERIOD":"95.593","MEAN_MOTION_DDOT":"0.0000000000000","RCS_SIZE":"LARGE","CLASSIFICATION_TYPE":"U","REV_AT_EPOCH":"11314","GP_ID":"232671361","MEAN_ELEMENT_THEORY":"SGP4","BSTAR":"0.00001223700000","MEAN_MOTION_DOT":"-0.00000099","TLE_LINE1":"1 48487U 21040BM  23148.20076672 -.00000099  00000-0  12237-4 0  9994","APOAPSIS":"548.184","PERIAPSIS":"546.328","LAUNCH_DATE":"2021-05-09"},{"BSTAR":"0.00124430000000","REV_AT_EPOCH":"11210","GP_ID":"232706405","MEAN_ELEMENT_THEORY":"SGP4","CLASSIFICATION_TYPE":"U","RCS_SIZE":"LARGE","MEAN_MOTION_DDOT":"0.0000000000000","PERIOD":"95.591","LAUNCH_DATE":"2021-05-15","PERIAPSIS":"546.373","TLE_LINE1":"1 48553U 21041A   23148.90755099  .00018309  00000-0  12443-2 0  9992","APOAPSIS":"547.951","MEAN_MOTION_DOT":"0.00018309","ECCENTRICITY":"0.00011390","EPHEMERIS_TYPE":"0","OBJECT_ID":"2021-041A","TLE_LINE2":"2 48553  53.0545  11.6458 0001139  82.3161 277.7957 15.06416885112102","MEAN_MOTION":"15.06416885","TIME_SYSTEM":"UTC","ELEMENT_SET_NO":"999","MEAN_ANOMALY":"277.7957","ARG_OF_PERICENTER":"82.3161","REF_FRAME":"TEME","NORAD_CAT_ID":"48553","RA_OF_ASC_NODE":"11.6458","OBJECT_TYPE":"PAYLOAD","CENTER_NAME":"EARTH","COUNTRY_CODE":"US","OBJECT_NAME":"STARLINK-2063","SEMIMAJOR_AXIS":"6925.297","DECAY_DATE":null,"FILE":"3919546","SITE":"AFETR","INCLINATION":"53.0545","EPOCH":"2023-05-28T21:46:52.405536"},{"BSTAR":"0.00094598000000","REV_AT_EPOCH":"11210","GP_ID":"232705153","MEAN_ELEMENT_THEORY":"SGP4","CLASSIFICATION_TYPE":"U","RCS_SIZE":"LARGE","MEAN_MOTION_DDOT":"0.0000000000000","PERIOD":"95.591","PERIAPSIS":"546.562","LAUNCH_DATE":"2021-05-15","TLE_LINE1":"1 48554U 21041B   23148.91491941  .00013842  00000-0  94598-3 0  9996","APOAPSIS":"547.782","MEAN_MOTION_DOT":"0.00013842","ECCENTRICITY":"0.00008810","OBJECT_ID":"2021-041B","EPHEMERIS_TYPE":"0","MEAN_MOTION":"15.06413583","TLE_LINE2":"2 48554  53.0556  11.6091 0000881  89.6467 270.4623 15.06413583112102","TIME_SYSTEM":"UTC","ELEMENT_SET_NO":"999","MEAN_ANOMALY":"270.4623","ARG_OF_PERICENTER":"89.6467","REF_FRAME":"TEME","NORAD_CAT_ID":"48554","OBJECT_TYPE":"PAYLOAD","RA_OF_ASC_NODE":"11.6091","COUNTRY_CODE":"US","CENTER_NAME":"EARTH","SEMIMAJOR_AXIS":"6925.307","OBJECT_NAME":"STARLINK-2139","FILE":"3919546","DECAY_DATE":null,"SITE":"AFETR","EPOCH":"2023-05-28T21:57:29.037024","INCLINATION":"53.0556"},{"MEAN_MOTION_DOT":"0.00014790","PERIAPSIS":"546.604","LAUNCH_DATE":"2021-05-15","TLE_LINE1":"1 48555U 21041C   23148.87713945  .00014790  00000-0  10094-2 0  9994","APOAPSIS":"547.760","RCS_SIZE":"LARGE","CLASSIFICATION_TYPE":"U","PERIOD":"95.591","MEAN_MOTION_DDOT":"0.0000000000000","BSTAR":"0.00100940000000","GP_ID":"232705904","REV_AT_EPOCH":"11195","MEAN_ELEMENT_THEORY":"SGP4","FILE":"3919546","DECAY_DATE":null,"SITE":"AFETR","EPOCH":"2023-05-28T21:03:04.848480","INCLINATION":"53.0553","REF_FRAME":"TEME","OBJECT_TYPE":"PAYLOAD","RA_OF_ASC_NODE":"21.7768","NORAD_CAT_ID":"48555","SEMIMAJOR_AXIS":"6925.317","OBJECT_NAME":"STARLINK-2145","CENTER_NAME":"EARTH","COUNTRY_CODE":"US","MEAN_ANOMALY":"272.4465","ELEMENT_SET_NO":"999","ARG_OF_PERICENTER":"87.6620","ECCENTRICITY":"0.00008350","MEAN_MOTION":"15.06410307","TLE_LINE2":"2 48555  53.0553  21.7768 0000835  87.6620 272.4465 15.06410307111950","OBJECT_ID":"2021-041C","EPHEMERIS_TYPE":"0","TIME_SYSTEM":"UTC"},{"MEAN_MOTION_DOT":"0.00016536","PERIAPSIS":"546.154","LAUNCH_DATE":"2021-05-15","APOAPSIS":"548.176","TLE_LINE1":"1 48556U 21041D   23148.93242838  .00016536  00000-0  11259-2 0  9994","RCS_SIZE":"LARGE","CLASSIFICATION_TYPE":"U","PERIOD":"95.591","MEAN_MOTION_DDOT":"0.0000000000000","BSTAR":"0.00112590000000","MEAN_ELEMENT_THEORY":"SGP4","GP_ID":"232706155","REV_AT_EPOCH":"11196","SITE":"AFETR","FILE":"3919546","DECAY_DATE":null,"EPOCH":"2023-05-28T22:22:41.812032","INCLINATION":"53.0542","OBJECT_TYPE":"PAYLOAD","RA_OF_ASC_NODE":"21.5290","NORAD_CAT_ID":"48556","REF_FRAME":"TEME","OBJECT_NAME":"STARLINK-2151","SEMIMAJOR_AXIS":"6925.300","COUNTRY_CODE":"US","CENTER_NAME":"EARTH","MEAN_ANOMALY":"278.9884","ELEMENT_SET_NO":"999","ARG_OF_PERICENTER":"81.1271","TLE_LINE2":"2 48556  53.0542  21.5290 0001460  81.1271 278.9884 15.06415967111967","MEAN_MOTION":"15.06415967","EPHEMERIS_TYPE":"0","OBJECT_ID":"2021-041D","ECCENTRICITY":"0.00014600","TIME_SYSTEM":"UTC"},{"MEAN_MOTION_DOT":"0.00013622","LAUNCH_DATE":"2021-05-15","PERIAPSIS":"546.500","TLE_LINE1":"1 48557U 21041E   23148.87068439  .00013622  00000-0  93131-3 0  9994","APOAPSIS":"547.847","RCS_SIZE":"LARGE","CLASSIFICATION_TYPE":"U","PERIOD":"95.591","MEAN_MOTION_DDOT":"0.0000000000000","BSTAR":"0.00093131000000","GP_ID":"232706906","REV_AT_EPOCH":"11209","MEAN_ELEMENT_THEORY":"SGP4","FILE":"3919546","DECAY_DATE":null,"SITE":"AFETR","INCLINATION":"53.0545","EPOCH":"2023-05-28T20:53:47.131296","REF_FRAME":"TEME","RA_OF_ASC_NODE":"11.8086","OBJECT_TYPE":"PAYLOAD","NORAD_CAT_ID":"48557","SEMIMAJOR_AXIS":"6925.309","OBJECT_NAME":"STARLINK-2155","CENTER_NAME":"EARTH","COUNTRY_CODE":"US","MEAN_ANOMALY":"247.3842","ELEMENT_SET_NO":"999","ARG_OF_PERICENTER":"112.7250","ECCENTRICITY":"0.00009730","TLE_LINE2":"2 48557  53.0545  11.8086 0000973 112.7250 247.3842 15.06413029112098","MEAN_MOTION":"15.06413029","EPHEMERIS_TYPE":"0","OBJECT_ID":"2021-041E","TIME_SYSTEM":"UTC"},{"OBJECT_TYPE":"PAYLOAD","RA_OF_ASC_NODE":"11.8213","NORAD_CAT_ID":"48558","REF_FRAME":"TEME","SEMIMAJOR_AXIS":"6925.334","OBJECT_NAME":"STARLINK-2166","COUNTRY_CODE":"US","CENTER_NAME":"EARTH","SITE":"AFETR","FILE":"3919546","DECAY_DATE":null,"EPOCH":"2023-05-28T20:48:29.140416","INCLINATION":"53.0546","MEAN_MOTION":"15.06404604","TLE_LINE2":"2 48558  53.0546  11.8213 0000939  80.3461 279.7633 15.06404604111239","EPHEMERIS_TYPE":"0","OBJECT_ID":"2021-041F","ECCENTRICITY":"0.00009390","TIME_SYSTEM":"UTC","MEAN_ANOMALY":"279.7633","ELEMENT_SET_NO":"999","ARG_OF_PERICENTER":"80.3461","LAUNCH_DATE":"2021-05-15","PERIAPSIS":"546.549","APOAPSIS":"547.850","TLE_LINE1":"1 48558U 21041F   23148.86700394  .00011937  00000-0  81880-3 0  9992","MEAN_MOTION_DOT":"0.00011937","BSTAR":"0.00081880000000","MEAN_ELEMENT_THEORY":"SGP4","GP_ID":"232705654","REV_AT_EPOCH":"11123","RCS_SIZE":"LARGE","CLASSIFICATION_TYPE":"U","PERIOD":"95.592","MEAN_MOTION_DDOT":"0.0000000000000"},{"APOAPSIS":"548.216","TLE_LINE1":"1 48559U 21041G   23148.90291610  .00004150  00000-0  29724-3 0  9992","PERIAPSIS":"546.117","LAUNCH_DATE":"2021-05-15","MEAN_MOTION_DOT":"0.00004150","MEAN_ELEMENT_THEORY":"SGP4","GP_ID":"232705404","REV_AT_EPOCH":"11209","BSTAR":"0.00029724000000","MEAN_MOTION_DDOT":"0.0000000000000","PERIOD":"95.591","CLASSIFICATION_TYPE":"U","RCS_SIZE":"LARGE","COUNTRY_CODE":"US","CENTER_NAME":"EARTH","SEMIMAJOR_AXIS":"6925.301","OBJECT_NAME":"STARLINK-2167","NORAD_CAT_ID":"48559","OBJECT_TYPE":"PAYLOAD","RA_OF_ASC_NODE":"11.6607","REF_FRAME":"TEME","EPOCH":"2023-05-28T21:40:11.951040","INCLINATION":"53.0538","SITE":"AFETR","FILE":"3919546","DECAY_DATE":null,"TIME_SYSTEM":"UTC","EPHEMERIS_TYPE":"0","OBJECT_ID":"2021-041G","MEAN_MOTION":"15.06415355","TLE_LINE2":"2 48559  53.0538  11.6607 0001515  88.3134 271.8029 15.06415355112094","ECCENTRICITY":"0.00015150","ARG_OF_PERICENTER":"88.3134","ELEMENT_SET_NO":"999","MEAN_ANOMALY":"271.8029"}];
